{
    "links": {
        "self": "http://www.neowsapp.com/rest/v1/neo/3612841?api_key=iIulBulltgU6a56xZRHN4H3l9WmuAYTsLGpBGhQ2"
    },
    "id": "3612841",
    "neo_reference_id": "3612841",
    "name": "(2012 UX27)",
    "designation": "2012 UX27",
    "nasa_jpl_url": "http://ssd.jpl.nasa.gov/sbdb.cgi?sstr=3612841",
    "absolute_magnitude_h": 21.0,
    "estimated_diameter": {
        "kilometers": {
            "estimated_diameter_min": 0.1677084622,
            "estimated_diameter_max": 0.3750075218
        },
        "meters": {
            "estimated_diameter_min": 167.7084621628,
            "estimated_diameter_max": 375.0075217981
        },
        "miles": {
            "estimated_diameter_min": 0.1042091748,
            "estimated_diameter_max": 0.2330187988
        },
        "feet": {
            "estimated_diameter_min": 550.2246310023,
            "estimated_diameter_max": 1230.3396778159
        }
    },
    "is_potentially_hazardous_asteroid": false,
    "close_approach_data": [
        {
            "close_approach_date": "1907-11-01",
            "close_approach_date_full": "1907-Nov-01 04:02",
            "epoch_date_close_approach": -1961870280000,
            "relative_velocity": {
                "kilometers_per_second": "20.3795394592",
                "kilometers_per_hour": "73366.3420529461",
                "miles_per_hour": "45586.9918161764"
            },
            "miss_distance": {
                "astronomical": "0.3883506182",
                "lunar": "151.0683904798",
                "kilometers": "58096425.295903234",
                "miles": "36099444.7253792692"
            },
            "orbiting_body": "Earth"
        },
        {
            "close_approach_date": "1909-08-27",
            "close_approach_date_full": "1909-Aug-27 23:50",
            "epoch_date_close_approach": -1904343000000,
            "relative_velocity": {
                "kilometers_per_second": "5.9310346444",
                "kilometers_per_hour": "21351.7247197692",
                "miles_per_hour": "13267.1313960143"
            },
            "miss_distance": {
                "astronomical": "1.7991913327",
                "lunar": "699.8854284203",
                "kilometers": "269155191.094381349",
                "miles": "167245280.4793426562"
            },
            "orbiting_body": "Juptr"
        },
        {
            "close_approach_date": "2012-09-10",
            "close_approach_date_full": "2012-Sep-10 18:15",
            "epoch_date_close_approach": 1347300900000,
            "relative_velocity": {
                "kilometers_per_second": "7.7508440918",
                "kilometers_per_hour": "27903.0387305267",
                "miles_per_hour": "17337.8631489765"
            },
            "miss_distance": {
                "astronomical": "0.080579059",
                "lunar": "31.345253951",
                "kilometers": "12054455.59300433",
                "miles": "7490291.376066554"
            },
            "orbiting_body": "Earth"
        }
    ],
    "orbital_data": {
        "orbit_id": "16",
        "orbit_determination_date": "2017-04-06 08:48:26",
        "first_observation_date": "2012-10-17",
        "last_observation_date": "2012-12-13",
        "data_arc_in_days": 57,
        "observations_used": 119,
        "orbit_uncertainty": "6",
        "minimum_orbit_intersection": ".0715234",
        "jupiter_tisserand_invariant": "3.072",
        "epoch_osculation": "2459000.5",
        "eccentricity": ".6180937563026114",
        "semi_major_axis": "2.668751814723788",
        "inclination": "4.397427054230753",
        "ascending_node_longitude": "91.59073295075024",
        "orbital_period": "1592.431311496391",
        "perihelion_distance": "1.019212980921751",
        "perihelion_argument": "255.1820856653153",
        "aphelion_distance": "4.318290648525825",
        "perihelion_time": "2459369.315167911222",
        "mean_anomaly": "276.6221742253524",
        "mean_motion": ".226069405569344",
        "equinox": "J2000",
        "orbit_class": {
            "orbit_class_type": "AMO",
            "orbit_class_description": "Near-Earth asteroid orbits similar to that of 1221 Amor",
            "orbit_class_range": "1.017 AU < q (perihelion) < 1.3 AU"
        }
    },
    "is_sentry_object": false
}